STARLINK-30104          
1 56300U 23056Q   26073.02690109 -.00004746  00000+0 -16730-3 0  9997
2 56300  42.9995 184.3940 0001484 264.4428  95.6254 15.26749437160769
STARLINK-30101          
1 56301U 23056R   26073.65124446  .00002758  00000+0  11241-3 0  9994
2 56301  43.0000 180.4715 0000985 274.9528  85.1211 15.26754692160865
STARLINK-30111          
1 56302U 23056S   26073.65005300 -.00000645  00000+0 -14367-4 0  9990
2 56302  42.9985 180.3996 0000686 298.6207  61.4575 15.26744673160869
STARLINK-30099          
1 56304U 23056U   26073.66406374  .00003522  00000+0  14089-3 0  9994
2 56304  42.9976 180.4859 0001135 263.5313  96.5409 15.26748880160868
STARLINK-30094          
1 56305U 23056V   26073.64843102  .00004860  00000+0  19063-3 0  9990
2 56305  43.0024 180.3653 0001176 268.2215  91.8502 15.26757254160861
STARLINK-30112          
1 56306U 23056W   26073.72043531  .00005103  00000+0  19959-3 0  9993
2 56306  42.9995 180.0628 0001243 268.7825  91.2884 15.26771567160874
STARLINK-6038           
1 56317U 23058A   26073.91689711 -.00000201  00000+0 -97073-5 0  9995
2 56317  97.6032  76.3770 0002022  88.4686 271.6773 15.05644340158635
STARLINK-5954           
1 56318U 23058B   26073.88920755  .00000435  00000+0  34378-4 0  9993
2 56318  97.6035  76.4109 0001953  90.8465 269.2986 15.05650163158639
STARLINK-6039           
1 56319U 23058C   26073.90723983  .00000370  00000+0  29858-4 0  9996
2 56319  97.6025  75.3262 0001756  88.7886 271.3542 15.05652844158563
STARLINK-5988           
1 56320U 23058D   26073.94286981  .00001700  00000+0  13688-3 0  9995
2 56320  97.6041  75.2799 0002939  65.8949 294.2582 15.01262625158576
STARLINK-5876           
1 56321U 23058E   26073.90028339 -.00106218  00000+0 -74769-2 0  9991
2 56321  97.6022  76.3985 0001310 103.0468 257.0905 15.05602407158631
STARLINK-6033           
1 56322U 23058F   26073.92901846  .00001397  00000+0  10320-3 0  9991
2 56322  97.6031  75.2969 0001849  78.3247 281.8187 15.04831884158569
STARLINK-6035           
1 56323U 23058G   26073.92040087  .00001005  00000+0  75459-4 0  9994
2 56323  97.6023  75.3076 0001926  72.6017 287.5420 15.04836470158557
STARLINK-6034           
1 56324U 23058H   26073.95292574 -.00003700  00000+0 -25251-3 0  9998
2 56324  97.6080  76.4846 0001970  78.6471 281.4977 15.05622168158645
STARLINK-5981           
1 56325U 23058J   26073.92594636  .00000368  00000+0  33228-4 0  9999
2 56325  97.6036  75.3005 0002948  86.0418 274.1144 15.01254040158913
STARLINK-5980           
1 56326U 23058K   26073.93544884  .00000949  00000+0  78395-4 0  9990
2 56326  97.6037  75.2903 0003398  46.2864 313.8641 15.01264273158567
