[{"OBJECT_NAME":"STARLINK-30104","OBJECT_ID":"2023-056Q","EPOCH":"2026-03-14T00:38:44.254176","MEAN_MOTION":15.26749437,"ECCENTRICITY":0.0001484,"INCLINATION":42.9995,"RA_OF_ASC_NODE":184.394,"ARG_OF_PERICENTER":264.4428,"MEAN_ANOMALY":95.6254,"EPHEMERIS_TYPE":0,"CLASSIFICATION_TYPE":"U","NORAD_CAT_ID":56300,"ELEMENT_SET_NO":999,"REV_AT_EPOCH":16076,"BSTAR":-0.00016730335,"MEAN_MOTION_DOT":-4.746e-5,"MEAN_MOTION_DDOT":0},{"OBJECT_NAME":"STARLINK-30101","OBJECT_ID":"2023-056R","EPOCH":"2026-03-14T15:37:47.521344","MEAN_MOTION":15.26754692,"ECCENTRICITY":9.853e-5,"INCLINATION":43,"RA_OF_ASC_NODE":180.4715,"ARG_OF_PERICENTER":274.9528,"MEAN_ANOMALY":85.1211,"EPHEMERIS_TYPE":0,"CLASSIFICATION_TYPE":"U","NORAD_CAT_ID":56301,"ELEMENT_SET_NO":999,"REV_AT_EPOCH":16086,"BSTAR":0.00011241257,"MEAN_MOTION_DOT":2.758e-5,"MEAN_MOTION_DDOT":0},{"OBJECT_NAME":"STARLINK-30111","OBJECT_ID":"2023-056S","EPOCH":"2026-03-14T15:36:04.579200","MEAN_MOTION":15.26744673,"ECCENTRICITY":6.863e-5,"INCLINATION":42.9985,"RA_OF_ASC_NODE":180.3996,"ARG_OF_PERICENTER":298.6207,"MEAN_ANOMALY":61.4575,"EPHEMERIS_TYPE":0,"CLASSIFICATION_TYPE":"U","NORAD_CAT_ID":56302,"ELEMENT_SET_NO":999,"REV_AT_EPOCH":16086,"BSTAR":-1.436696e-5,"MEAN_MOTION_DOT":-6.45e-6,"MEAN_MOTION_DDOT":0},{"OBJECT_NAME":"STARLINK-30099","OBJECT_ID":"2023-056U","EPOCH":"2026-03-14T15:56:15.107136","MEAN_MOTION":15.2674888,"ECCENTRICITY":0.00011354,"INCLINATION":42.9976,"RA_OF_ASC_NODE":180.4859,"ARG_OF_PERICENTER":263.5313,"MEAN_ANOMALY":96.5409,"EPHEMERIS_TYPE":0,"CLASSIFICATION_TYPE":"U","NORAD_CAT_ID":56304,"ELEMENT_SET_NO":999,"REV_AT_EPOCH":16086,"BSTAR":0.00014089291,"MEAN_MOTION_DOT":3.522e-5,"MEAN_MOTION_DDOT":0},{"OBJECT_NAME":"STARLINK-30094","OBJECT_ID":"2023-056V","EPOCH":"2026-03-14T15:33:44.440128","MEAN_MOTION":15.26757254,"ECCENTRICITY":0.0001176,"INCLINATION":43.0024,"RA_OF_ASC_NODE":180.3653,"ARG_OF_PERICENTER":268.2215,"MEAN_ANOMALY":91.8502,"EPHEMERIS_TYPE":0,"CLASSIFICATION_TYPE":"U","NORAD_CAT_ID":56305,"ELEMENT_SET_NO":999,"REV_AT_EPOCH":16086,"BSTAR":0.00019063193,"MEAN_MOTION_DOT":4.86e-5,"MEAN_MOTION_DDOT":0},{"OBJECT_NAME":"STARLINK-30112","OBJECT_ID":"2023-056W","EPOCH":"2026-03-14T17:17:25.610784","MEAN_MOTION":15.26771567,"ECCENTRICITY":0.00012439,"INCLINATION":42.9995,"RA_OF_ASC_NODE":180.0628,"ARG_OF_PERICENTER":268.7825,"MEAN_ANOMALY":91.2884,"EPHEMERIS_TYPE":0,"CLASSIFICATION_TYPE":"U","NORAD_CAT_ID":56306,"ELEMENT_SET_NO":999,"REV_AT_EPOCH":16087,"BSTAR":0.00019959265,"MEAN_MOTION_DOT":5.103e-5,"MEAN_MOTION_DDOT":0},{"OBJECT_NAME":"STARLINK-6038","OBJECT_ID":"2023-058A","EPOCH":"2026-03-14T22:00:19.910304","MEAN_MOTION":15.0564434,"ECCENTRICITY":0.00020222,"INCLINATION":97.6032,"RA_OF_ASC_NODE":76.377,"ARG_OF_PERICENTER":88.4686,"MEAN_ANOMALY":271.6773,"EPHEMERIS_TYPE":0,"CLASSIFICATION_TYPE":"U","NORAD_CAT_ID":56317,"ELEMENT_SET_NO":999,"REV_AT_EPOCH":15863,"BSTAR":-9.707271e-6,"MEAN_MOTION_DOT":-2.01e-6,"MEAN_MOTION_DDOT":0},{"OBJECT_NAME":"STARLINK-5954","OBJECT_ID":"2023-058B","EPOCH":"2026-03-14T21:20:27.532320","MEAN_MOTION":15.05650163,"ECCENTRICITY":0.00019534,"INCLINATION":97.6035,"RA_OF_ASC_NODE":76.4109,"ARG_OF_PERICENTER":90.8465,"MEAN_ANOMALY":269.2986,"EPHEMERIS_TYPE":0,"CLASSIFICATION_TYPE":"U","NORAD_CAT_ID":56318,"ELEMENT_SET_NO":999,"REV_AT_EPOCH":15863,"BSTAR":3.4378313e-5,"MEAN_MOTION_DOT":4.35e-6,"MEAN_MOTION_DDOT":0},{"OBJECT_NAME":"STARLINK-6039","OBJECT_ID":"2023-058C","EPOCH":"2026-03-14T21:46:25.521312","MEAN_MOTION":15.05652844,"ECCENTRICITY":0.00017564,"INCLINATION":97.6025,"RA_OF_ASC_NODE":75.3262,"ARG_OF_PERICENTER":88.7886,"MEAN_ANOMALY":271.3542,"EPHEMERIS_TYPE":0,"CLASSIFICATION_TYPE":"U","NORAD_CAT_ID":56319,"ELEMENT_SET_NO":999,"REV_AT_EPOCH":15856,"BSTAR":2.9858119e-5,"MEAN_MOTION_DOT":3.7e-6,"MEAN_MOTION_DDOT":0},{"OBJECT_NAME":"STARLINK-5988","OBJECT_ID":"2023-058D","EPOCH":"2026-03-14T22:37:43.951584","MEAN_MOTION":15.01262625,"ECCENTRICITY":0.00029396,"INCLINATION":97.6041,"RA_OF_ASC_NODE":75.2799,"ARG_OF_PERICENTER":65.8949,"MEAN_ANOMALY":294.2582,"EPHEMERIS_TYPE":0,"CLASSIFICATION_TYPE":"U","NORAD_CAT_ID":56320,"ELEMENT_SET_NO":999,"REV_AT_EPOCH":15857,"BSTAR":0.00013688258,"MEAN_MOTION_DOT":1.7e-5,"MEAN_MOTION_DDOT":0},{"OBJECT_NAME":"STARLINK-5876","OBJECT_ID":"2023-058E","EPOCH":"2026-03-14T21:36:24.484896","MEAN_MOTION":15.05602407,"ECCENTRICITY":0.00013109,"INCLINATION":97.6022,"RA_OF_ASC_NODE":76.3985,"ARG_OF_PERICENTER":103.0468,"MEAN_ANOMALY":257.0905,"EPHEMERIS_TYPE":0,"CLASSIFICATION_TYPE":"U","NORAD_CAT_ID":56321,"ELEMENT_SET_NO":999,"REV_AT_EPOCH":15863,"BSTAR":-0.007476902,"MEAN_MOTION_DOT":-0.00106218,"MEAN_MOTION_DDOT":0},{"OBJECT_NAME":"STARLINK-6033","OBJECT_ID":"2023-058F","EPOCH":"2026-03-14T22:17:47.194944","MEAN_MOTION":15.04831884,"ECCENTRICITY":0.00018499,"INCLINATION":97.6031,"RA_OF_ASC_NODE":75.2969,"ARG_OF_PERICENTER":78.3247,"MEAN_ANOMALY":281.8187,"EPHEMERIS_TYPE":0,"CLASSIFICATION_TYPE":"U","NORAD_CAT_ID":56322,"ELEMENT_SET_NO":999,"REV_AT_EPOCH":15856,"BSTAR":0.00010319676,"MEAN_MOTION_DOT":1.397e-5,"MEAN_MOTION_DDOT":0},{"OBJECT_NAME":"STARLINK-6035","OBJECT_ID":"2023-058G","EPOCH":"2026-03-14T22:05:22.635168","MEAN_MOTION":15.0483647,"ECCENTRICITY":0.00019269,"INCLINATION":97.6023,"RA_OF_ASC_NODE":75.3076,"ARG_OF_PERICENTER":72.6017,"MEAN_ANOMALY":287.542,"EPHEMERIS_TYPE":0,"CLASSIFICATION_TYPE":"U","NORAD_CAT_ID":56323,"ELEMENT_SET_NO":999,"REV_AT_EPOCH":15855,"BSTAR":7.5459432e-5,"MEAN_MOTION_DOT":1.005e-5,"MEAN_MOTION_DDOT":0},{"OBJECT_NAME":"STARLINK-6034","OBJECT_ID":"2023-058H","EPOCH":"2026-03-14T22:52:12.783936","MEAN_MOTION":15.05622168,"ECCENTRICITY":0.00019703,"INCLINATION":97.608,"RA_OF_ASC_NODE":76.4846,"ARG_OF_PERICENTER":78.6471,"MEAN_ANOMALY":281.4977,"EPHEMERIS_TYPE":0,"CLASSIFICATION_TYPE":"U","NORAD_CAT_ID":56324,"ELEMENT_SET_NO":999,"REV_AT_EPOCH":15864,"BSTAR":-0.00025250953,"MEAN_MOTION_DOT":-3.7e-5,"MEAN_MOTION_DDOT":0},{"OBJECT_NAME":"STARLINK-5981","OBJECT_ID":"2023-058J","EPOCH":"2026-03-14T22:13:21.765504","MEAN_MOTION":15.0125404,"ECCENTRICITY":0.00029484,"INCLINATION":97.6036,"RA_OF_ASC_NODE":75.3005,"ARG_OF_PERICENTER":86.0418,"MEAN_ANOMALY":274.1144,"EPHEMERIS_TYPE":0,"CLASSIFICATION_TYPE":"U","NORAD_CAT_ID":56325,"ELEMENT_SET_NO":999,"REV_AT_EPOCH":15891,"BSTAR":3.3228304e-5,"MEAN_MOTION_DOT":3.68e-6,"MEAN_MOTION_DDOT":0},{"OBJECT_NAME":"STARLINK-5980","OBJECT_ID":"2023-058K","EPOCH":"2026-03-14T22:27:02.779776","MEAN_MOTION":15.01264273,"ECCENTRICITY":0.00033981,"INCLINATION":97.6037,"RA_OF_ASC_NODE":75.2903,"ARG_OF_PERICENTER":46.2864,"MEAN_ANOMALY":313.8641,"EPHEMERIS_TYPE":0,"CLASSIFICATION_TYPE":"U","NORAD_CAT_ID":56326,"ELEMENT_SET_NO":999,"REV_AT_EPOCH":15856,"BSTAR":7.839502e-5,"MEAN_MOTION_DOT":9.49e-6,"MEAN_MOTION_DDOT":0}]
